{"type": "FeatureCollection", "features": [ {"type": "Feature", "properties": {"norad_id": 60453, "name": "LEGION 4", "group": "resource", "lat": 4.354130151239972, "lon": -130.3840266590991, "alt_km": 521.9249022631138, "timestamp": "2025-12-10T11:33:53.049324+00:00", "meta": {"OBJECT_NAME": "LEGION 4", "OBJECT_ID": "2024-146B", "EPOCH": "2025-12-10T04:28:26.802912", "MEAN_MOTION": 15.15781146, "ECCENTRICITY": 0.0009714, "INCLINATION": 45.0385, "RA_OF_ASC_NODE": 55.5635, "ARG_OF_PERICENTER": 297.8773, "MEAN_ANOMALY": 62.1122, "EPHEMERIS_TYPE": 0, "CLASSIFICATION_TYPE": "U", "NORAD_CAT_ID": 60453, "ELEMENT_SET_NO": 999, "REV_AT_EPOCH": 7219, "BSTAR": 0.00039605, "MEAN_MOTION_DOT": 7.439e-05, "MEAN_MOTION_DDOT": 0}, "tle": {"line1": "1 60453U 24146B   25344.18642133  .00007439  00000+0  39605-3 0  9999", "line2": "2 60453  45.0385  55.5635 0009714 297.8773  62.1122 15.15781146 72190"}}, "geometry": {"type": "Point", "coordinates": [-130.3840266590991, 4.354130151239972]}}, {"type": "Feature", "properties": {"norad_id": 60989, "name": "SENTINEL-2C", "group": "resource", "lat": -76.87535066125494, "lon": -163.2910510311021, "alt_km": 797.140802467532, "timestamp": "2025-12-10T11:33:53.049336+00:00", "meta": {"OBJECT_NAME": "SENTINEL-2C", "OBJECT_ID": "2024-157A", "EPOCH": "2025-12-10T03:38:23.778240", "MEAN_MOTION": 14.30815927, "ECCENTRICITY": 0.0001201, "INCLINATION": 98.5684, "RA_OF_ASC_NODE": 56.6715, "ARG_OF_PERICENTER": 98.0371, "MEAN_ANOMALY": 262.0948, "EPHEMERIS_TYPE": 0, "CLASSIFICATION_TYPE": "U", "NORAD_CAT_ID": 60989, "ELEMENT_SET_NO": 999, "REV_AT_EPOCH": 6595, "BSTAR": 0.00010601, "MEAN_MOTION_DOT": 2.34e-06, "MEAN_MOTION_DDOT": 0}, "tle": {"line1": "1 60989U 24157A   25344.15166410  .00000234  00000+0  10601-3 0  9992", "line2": "2 60989  98.5684  56.6715 0001201  98.0371 262.0948 14.30815927 65952"}}, "geometry": {"type": "Point", "coordinates": [-163.2910510311021, -76.87535066125494]}}, {"type": "Feature", "properties": {"norad_id": 61735, "name": "IONOSFERA-M 1", "group": "resource", "lat": -51.34033926861885, "lon": 23.25906612008517, "alt_km": 823.778008580277, "timestamp": "2025-12-10T11:33:53.049346+00:00", "meta": {"OBJECT_NAME": "IONOSFERA-M 1", "OBJECT_ID": "2024-199A", "EPOCH": "2025-12-10T03:43:31.933344", "MEAN_MOTION": 14.22713167, "ECCENTRICITY": 0.0001081, "INCLINATION": 98.7412, "RA_OF_ASC_NODE": 214.0233, "ARG_OF_PERICENTER": 25.3742, "MEAN_ANOMALY": 334.7489, "EPHEMERIS_TYPE": 0, "CLASSIFICATION_TYPE": "U", "NORAD_CAT_ID": 61735, "ELEMENT_SET_NO": 999, "REV_AT_EPOCH": 10082, "BSTAR": 7.6651e-05, "MEAN_MOTION_DOT": 1.27e-06, "MEAN_MOTION_DDOT": 0}, "tle": {"line1": "1 61735U 24199A   25344.15523071  .00000127  00000+0  76651-4 0  9997", "line2": "2 61735  98.7412 214.0233 0001081  25.3742 334.7489 14.22713167100826"}}, "geometry": {"type": "Point", "coordinates": [23.25906612008517, -51.34033926861885]}}, {"type": "Feature", "properties": {"norad_id": 61736, "name": "IONOSFERA-M 2", "group": "resource", "lat": 53.75684362558248, "lon": -157.85453119902917, "alt_km": 810.4813710578055, "timestamp": "2025-12-10T11:33:53.049356+00:00", "meta": {"OBJECT_NAME": "IONOSFERA-M 2", "OBJECT_ID": "2024-199B", "EPOCH": "2025-12-10T04:33:25.670016", "MEAN_MOTION": 14.22715345, "ECCENTRICITY": 0.0001585, "INCLINATION": 98.7403, "RA_OF_ASC_NODE": 213.9702, "ARG_OF_PERICENTER": 113.9493, "MEAN_ANOMALY": 246.1851, "EPHEMERIS_TYPE": 0, "CLASSIFICATION_TYPE": "U", "NORAD_CAT_ID": 61736, "ELEMENT_SET_NO": 999, "REV_AT_EPOCH": 10395, "BSTAR": 7.2722e-05, "MEAN_MOTION_DOT": 1.19e-06, "MEAN_MOTION_DDOT": 0}, "tle": {"line1": "1 61736U 24199B   25344.18988044  .00000119  00000+0  72722-4 0  9992", "line2": "2 61736  98.7403 213.9702 0001585 113.9493 246.1851 14.22715345103958"}}, "geometry": {"type": "Point", "coordinates": [-157.85453119902917, 53.75684362558248]}}, {"type": "Feature", "properties": {"norad_id": 63772, "name": "BIOMASS", "group": "resource", "lat": -62.27550212297096, "lon": -26.137718392947637, "alt_km": 676.9457039719464, "timestamp": "2025-12-10T11:33:53.049367+00:00", "meta": {"OBJECT_NAME": "BIOMASS", "OBJECT_ID": "2025-090A", "EPOCH": "2025-12-10T02:16:38.800128", "MEAN_MOTION": 14.67536787, "ECCENTRICITY": 0.0001206, "INCLINATION": 98.07, "RA_OF_ASC_NODE": 169.1432, "ARG_OF_PERICENTER": 77.5553, "MEAN_ANOMALY": 282.5786, "EPHEMERIS_TYPE": 0, "CLASSIFICATION_TYPE": "U", "NORAD_CAT_ID": 63772, "ELEMENT_SET_NO": 999, "REV_AT_EPOCH": 3295, "BSTAR": 0.00037987, "MEAN_MOTION_DOT": 2.106e-05, "MEAN_MOTION_DDOT": 0}, "tle": {"line1": "1 63772U 25090A   25344.09489352  .00002106  00000+0  37987-3 0  9994", "line2": "2 63772  98.0700 169.1432 0001206  77.5553 282.5786 14.67536787 32959"}}, "geometry": {"type": "Point", "coordinates": [-26.137718392947637, -62.27550212297096]}}, {"type": "Feature", "properties": {"norad_id": 64694, "name": "GOSAT-GW (IBUKI GW)", "group": "resource", "lat": 81.51391585898372, "lon": 171.4093602974389, "alt_km": 660.3607538075958, "timestamp": "2025-12-10T11:33:53.049377+00:00", "meta": {"OBJECT_NAME": "GOSAT-GW (IBUKI GW)", "OBJECT_ID": "2025-141A", "EPOCH": "2025-12-08T18:14:08.043648", "MEAN_MOTION": 14.67565462, "ECCENTRICITY": 0.00014946, "INCLINATION": 98.0423, "RA_OF_ASC_NODE": 278.345, "ARG_OF_PERICENTER": 82.5316, "MEAN_ANOMALY": 277.6059, "EPHEMERIS_TYPE": 0, "CLASSIFICATION_TYPE": "U", "NORAD_CAT_ID": 64694, "ELEMENT_SET_NO": 999, "REV_AT_EPOCH": 2391, "BSTAR": 0.00038232231, "MEAN_MOTION_DOT": 2.122e-05, "MEAN_MOTION_DDOT": 0}, "tle": {"line1": "1 64694U 25141A   25342.75981532  .00002122  00000+0  38232-3 0  9995", "line2": "2 64694  98.0423 278.3450 0001494  82.5316 277.6059 14.67565462 23916"}}, "geometry": {"type": "Point", "coordinates": [171.4093602974389, 81.51391585898372]}}, {"type": "Feature", "properties": {"norad_id": 64876, "name": "IONOSFERA-M 3", "group": "resource", "lat": 68.80129722929503, "lon": 149.31453625336601, "alt_km": 812.6342936574138, "timestamp": "2025-12-10T11:33:53.049387+00:00", "meta": {"OBJECT_NAME": "IONOSFERA-M 3", "OBJECT_ID": "2025-155A", "EPOCH": "2025-12-10T04:17:40.055712", "MEAN_MOTION": 14.21439934, "ECCENTRICITY": 0.0002293, "INCLINATION": 98.5779, "RA_OF_ASC_NODE": 306.1176, "ARG_OF_PERICENTER": 64.1146, "MEAN_ANOMALY": 296.0267, "EPHEMERIS_TYPE": 0, "CLASSIFICATION_TYPE": "U", "NORAD_CAT_ID": 64876, "ELEMENT_SET_NO": 999, "REV_AT_EPOCH": 1955, "BSTAR": 8.1742e-05, "MEAN_MOTION_DOT": 1.36e-06, "MEAN_MOTION_DDOT": 0}, "tle": {"line1": "1 64876U 25155A   25344.17893583  .00000136  00000+0  81742-4 0  9996", "line2": "2 64876  98.5779 306.1176 0002293  64.1146 296.0267 14.21439934 19552"}}, "geometry": {"type": "Point", "coordinates": [149.31453625336601, 68.80129722929503]}}, {"type": "Feature", "properties": {"norad_id": 64877, "name": "IONOSFERA-M 4", "group": "resource", "lat": -68.31255618590781, "lon": -31.364206013542297, "alt_km": 828.5642077935527, "timestamp": "2025-12-10T11:33:53.049397+00:00", "meta": {"OBJECT_NAME": "IONOSFERA-M 4", "OBJECT_ID": "2025-155B", "EPOCH": "2025-12-10T03:26:48.144192", "MEAN_MOTION": 14.21441089, "ECCENTRICITY": 0.0001655, "INCLINATION": 98.5778, "RA_OF_ASC_NODE": 306.0028, "ARG_OF_PERICENTER": 66.058, "MEAN_ANOMALY": 294.0771, "EPHEMERIS_TYPE": 0, "CLASSIFICATION_TYPE": "U", "NORAD_CAT_ID": 64877, "ELEMENT_SET_NO": 999, "REV_AT_EPOCH": 1954, "BSTAR": 9.726e-05, "MEAN_MOTION_DOT": 1.7e-06, "MEAN_MOTION_DDOT": 0}, "tle": {"line1": "1 64877U 25155B   25344.14361278  .00000170  00000+0  97260-4 0  9995", "line2": "2 64877  98.5778 306.0028 0001655  66.0580 294.0771 14.21441089 19542"}}, "geometry": {"type": "Point", "coordinates": [-31.364206013542297, -68.31255618590781]}}, {"type": "Feature", "properties": {"norad_id": 64899, "name": "MICROCARB", "group": "resource", "lat": 33.25059777400439, "lon": 54.571125541981374, "alt_km": 658.066168179018, "timestamp": "2025-12-10T11:33:53.049407+00:00", "meta": {"OBJECT_NAME": "MICROCARB", "OBJECT_ID": "2025-156A", "EPOCH": "2025-12-10T03:15:19.119744", "MEAN_MOTION": 14.72050164, "ECCENTRICITY": 0.0016978, "INCLINATION": 98.0028, "RA_OF_ASC_NODE": 59.5229, "ARG_OF_PERICENTER": 152.7192, "MEAN_ANOMALY": 207.4911, "EPHEMERIS_TYPE": 0, "CLASSIFICATION_TYPE": "U", "NORAD_CAT_ID": 64899, "ELEMENT_SET_NO": 999, "REV_AT_EPOCH": 2015, "BSTAR": 0.00018947, "MEAN_MOTION_DOT": 1.143e-05, "MEAN_MOTION_DDOT": 0}, "tle": {"line1": "1 64899U 25156A   25344.13563796  .00001143  00000+0  18947-3 0  9993", "line2": "2 64899  98.0028  59.5229 0016978 152.7192 207.4911 14.72050164 20157"}}, "geometry": {"type": "Point", "coordinates": [54.571125541981374, 33.25059777400439]}}, {"type": "Feature", "properties": {"norad_id": 64900, "name": "CO3D 3", "group": "resource", "lat": 44.157643468557815, "lon": 53.59731840423967, "alt_km": 500.96562921707937, "timestamp": "2025-12-10T11:33:53.049417+00:00", "meta": {"OBJECT_NAME": "CO3D 3", "OBJECT_ID": "2025-156B", "EPOCH": "2025-12-10T05:03:00.396000", "MEAN_MOTION": 15.2020128, "ECCENTRICITY": 0.0001384, "INCLINATION": 97.4339, "RA_OF_ASC_NODE": 60.6137, "ARG_OF_PERICENTER": 98.784, "MEAN_ANOMALY": 261.3552, "EPHEMERIS_TYPE": 0, "CLASSIFICATION_TYPE": "U", "NORAD_CAT_ID": 64900, "ELEMENT_SET_NO": 999, "REV_AT_EPOCH": 2082, "BSTAR": 0.00066934, "MEAN_MOTION_DOT": 0.0001445, "MEAN_MOTION_DDOT": 0}, "tle": {"line1": "1 64900U 25156B   25344.21042125  .00014450  00000+0  66934-3 0  9997", "line2": "2 64900  97.4339  60.6137 0001384  98.7840 261.3552 15.20201280 20828"}}, "geometry": {"type": "Point", "coordinates": [53.59731840423967, 44.157643468557815]}}]}